NORAD_CAT_ID,OBJECT_NAME,OBJECT_TYPE,EPOCH,MEAN_MOTION,ECCENTRICITY,INCLINATION,RA_OF_ASC_NODE,ARG_OF_PERICENTER,MEAN_ANOMALY,BSTAR,MEAN_MOTION_DOT,MEAN_MOTION_DDOT,TLE_LINE0,TLE_LINE1,TLE_LINE2,SEMIMAJOR_AXIS,PERIOD,APOGEE,PERIGEE,DECAYED
37853,RAX-2,PAYLOAD,2022-04-12 19:35:17,15.07772035,0.0157527,101.7062,173.2041,282.5749,75.7886,0.00038842,7.77e-05,0.0,0 RAX-2,1 37853U 11061D   22102.81617662  .00007770  00000-0  38842-3 0  9998,2 37853 101.7062 173.2041 0157527 282.5749  75.7886 15.07772035571277,6921.147,95.505,652.038,433.985,0.0
37853,RAX-2,PAYLOAD,2022-04-13 03:33:04,15.07776278,0.015754499999999998,101.7062,173.7079,281.6054,76.7512,0.00037652,7.528e-05,0.0,0 RAX-2,1 37853U 11061D   22103.14797211  .00007528  00000-0  37652-3 0  9993,2 37853 101.7062 173.7079 0157545 281.6054  76.7512 15.07776278570844,6921.134,95.505,652.038,433.96,0.0
37853,RAX-2,PAYLOAD,2022-04-13 19:28:39,15.07780905,0.0157542,101.7063,174.7152,279.6398,78.7048,0.00031298,6.228e-05,0.0,0 RAX-2,1 37853U 11061D   22103.81156286  .00006228  00000-0  31298-3 0  9994,2 37853 101.7063 174.7152 0157542 279.6398  78.7048 15.07780905570942,6921.12,95.505,652.021,433.94800000000004,0.0
37853,RAX-2,PAYLOAD,2022-04-14 03:26:25,15.07784828,0.015753,101.7062,175.2188,278.6457,79.6938,0.00029641,5.889e-05,0.0,0 RAX-2,1 37853U 11061D   22104.14335619  .00005889  00000-0  29641-3 0  9991,2 37853 101.7062 175.2188 0157530 278.6457  79.6938 15.07784828571473,6921.108,95.50399999999999,652.001,433.944,0.0
37853,RAX-2,PAYLOAD,2022-04-14 09:48:39,15.07788321,0.015749700000000002,101.7063,175.6217,277.8555,80.4806,0.00030749,6.116e-05,0.0,0 RAX-2,1 37853U 11061D   22104.40879055  .00006116  00000-0  30749-3 0  9992,2 37853 101.7063 175.6217 0157497 277.8555  80.4806 15.07788321571031,6921.097,95.50399999999999,651.967,433.957,0.0
37853,RAX-2,PAYLOAD,2022-04-14 22:33:06,15.07798912,0.015745,101.7063,176.4276,276.2674,82.0626,0.00037757,7.552e-05,0.0,0 RAX-2,1 37853U 11061D   22104.93965627  .00007552  00000-0  37757-3 0  9992,2 37853 101.7063 176.4276 0157450 276.2674  82.0626 15.07798912571113,6921.064,95.50299999999999,651.9019999999998,433.957,0.0
37853,RAX-2,PAYLOAD,2022-04-15 11:17:32,15.07807422,0.0157407,101.7062,177.2334,274.6893,83.6359,0.00037734,7.548e-05,0.0,0 RAX-2,1 37853U 11061D   22105.47051893  .00007548  00000-0  37734-3 0  9993,2 37853 101.7062 177.2334 0157407 274.6893  83.6359 15.07807422571671,6921.038000000001,95.50299999999999,651.845,433.961,0.0
37853,RAX-2,PAYLOAD,2022-04-15 19:15:19,15.07814176,0.0157371,101.7061,177.7369,273.7018,84.6212,0.0003972,7.955e-05,0.0,0 RAX-2,1 37853U 11061D   22105.80230653  .00007955  00000-0  39720-3 0  9992,2 37853 101.7061 177.7369 0157371 273.7018  84.6212 15.07814176571248,6921.018,95.50200000000001,651.799,433.966,0.0
37853,RAX-2,PAYLOAD,2022-04-16 11:10:51,15.07822827,0.0157306,101.706,178.7443,271.723,86.5971,0.00031092,6.189e-05,0.0,0 RAX-2,1 37853U 11061D   22106.46587882  .00006189  00000-0  31092-3 0  9996,2 37853 101.7060 178.7443 0157306 271.7230  86.5971 15.07822827571349,6920.991,95.50200000000001,651.7280000000002,433.985,0.0
37853,RAX-2,PAYLOAD,2022-04-16 19:08:38,15.07827985,0.0157264,101.7059,179.248,270.7307,87.589,0.00030459,6.059e-05,0.0,0 RAX-2,1 37853U 11061D   22106.79766346  .00006059  00000-0  30459-3 0  9998,2 37853 101.7059 179.2480 0157264 270.7307  87.5890 15.07827985571870,6920.975,95.50200000000001,651.682,433.99800000000016,0.0
37853,RAX-2,PAYLOAD,2022-04-17 03:06:24,15.0783254,0.0157239,101.7059,179.7518,269.73900000000003,88.5805,0.00030798,6.129e-05,0.0,0 RAX-2,1 37853U 11061D   22107.12944741  .00006129  00000-0  30798-3 0  9997,2 37853 101.7059 179.7518 0157239 269.7390  88.5805 15.07832540571442,6920.9619999999995,95.501,651.651,434.00199999999995,0.0
37853,RAX-2,PAYLOAD,2022-04-17 19:01:56,15.07839918,0.0157193,101.7057,180.7594,267.7526,90.5681,0.00028589,5.677e-05,0.0,0 RAX-2,1 37853U 11061D   22107.79301334  .00005677  00000-0  28589-3 0  9997,2 37853 101.7057 180.7594 0157193 267.7526  90.5681 15.07839918571546,6920.939,95.501,651.596,434.01199999999994,0.0
37853,RAX-2,PAYLOAD,2022-04-18 02:59:42,15.07843768,0.0157185,101.7056,181.2631,266.7594,91.5626,0.00028328,5.624e-05,0.0,0 RAX-2,1 37853U 11061D   22108.12479514  .00005624  00000-0  28328-3 0  9994,2 37853 101.7056 181.2631 0157185 266.7594  91.5626 15.07843768572075,6920.927,95.501,651.5790000000002,434.006,0.0
37853,RAX-2,PAYLOAD,2022-04-18 10:57:28,15.07847502,0.0157172,101.7055,181.7669,265.7681,92.5557,0.00028801,5.721e-05,0.0,0 RAX-2,1 37853U 11061D   22108.45657632  .00005721  00000-0  28801-3 0  9993,2 37853 101.7055 181.7669 0157172 265.7681  92.5557 15.07847502571648,6920.916,95.5,651.558,434.00300000000004,0.0
37853,RAX-2,PAYLOAD,2022-04-18 18:55:14,15.07851834,0.0157161,101.7054,182.2706,264.7752,93.5511,0.00029508,5.866e-05,0.0,0 RAX-2,1 37853U 11061D   22108.78835655  .00005866  00000-0  29508-3 0  9997,2 37853 101.7054 182.2706 0157161 264.7752  93.5511 15.07851834571690,6920.901999999999,95.5,651.5369999999998,433.99800000000016,0.0
37853,RAX-2,PAYLOAD,2022-04-19 04:28:32,15.07857736,0.0157148,101.7051,182.8752,263.5819,94.7479,0.00031605,6.297e-05,0.0,0 RAX-2,1 37853U 11061D   22109.18649154  .00006297  00000-0  31605-3 0  9999,2 37853 101.7051 182.8752 0157148 263.5819  94.7479 15.07857736572234,6920.884,95.5,651.51,433.98900000000003,0.0
37853,RAX-2,PAYLOAD,2022-04-19 10:50:45,15.07861682,0.015714099999999998,101.705,183.2781,262.79200000000003,95.5406,0.00033498,6.685e-05,0.0,0 RAX-2,1 37853U 11061D   22109.45191414  .00006685  00000-0  33498-3 0  9993,2 37853 101.7050 183.2781 0157141 262.7920  95.5406 15.07861682571791,6920.8719999999985,95.499,651.493,433.98199999999997,0.0
37853,RAX-2,PAYLOAD,2022-04-20 10:44:01,15.07872679,0.0157167,101.7046,184.7892,259.8204,98.5251,0.00030839999999999996,6.143e-05,0.0,0 RAX-2,1 37853U 11061D   22110.44724524  .00006143  00000-0  30840-3 0  9995,2 37853 101.7046 184.7892 0157167 259.8204  98.5251 15.07872679572425,6920.839,95.499,651.476,433.931,0.0
37853,RAX-2,PAYLOAD,2022-04-21 10:37:17,15.07886649,0.0157193,101.7043,186.3003,256.87,101.4931,0.0003505,7.01e-05,0.0,0 RAX-2,1 37853U 11061D   22111.44256888  .00007010  00000-0  35050-3 0  9991,2 37853 101.7043 186.3003 0157193 256.8700 101.4931 15.07886649572095,6920.7959999999985,95.49799999999999,651.451,433.871,0.0
37853,RAX-2,PAYLOAD,2022-04-21 15:23:57,15.07889911,0.0157196,101.7041,186.6025,256.27299999999997,102.0942,0.00036942,7.399e-05,0.0,0 RAX-2,1 37853U 11061D   22111.64163244  .00007399  00000-0  36942-3 0  9997,2 37853 101.7041 186.6025 0157196 256.2730 102.0942 15.07889911572601,6920.786,95.49799999999999,651.443,433.85900000000004,0.0
37853,RAX-2,PAYLOAD,2022-04-22 10:30:33,15.07901622,0.015722,101.704,187.8114,253.9158,104.4696,0.00038777,7.779e-05,0.0,0 RAX-2,1 37853U 11061D   22112.43788359  .00007779  00000-0  38777-3 0  9995,2 37853 101.7040 187.8114 0157220 253.9158 104.4696 15.07901622572244,6920.75,95.49700000000001,651.423,433.80699999999996,0.0
37853,RAX-2,PAYLOAD,2022-04-23 04:01:35,15.07914503,0.0157221,101.7039,188.9195,251.7607,106.6441,0.00043216,8.694e-05,0.0,0 RAX-2,1 37853U 11061D   22113.16777494  .00008694  00000-0  43216-3 0  9995,2 37853 101.7039 188.9195 0157221 251.7607 106.6441 15.07914503572838,6920.7109999999975,95.49600000000001,651.384,433.76800000000003,0.0
37853,RAX-2,PAYLOAD,2022-04-23 10:23:47,15.07919402,0.015721799999999998,101.704,189.3224,250.9722,107.4403,0.00045301,9.123e-05,0.0,0 RAX-2,1 37853U 11061D   22113.43318859  .00009123  00000-0  45301-3 0  9996,2 37853 101.7040 189.3224 0157218 250.9722 107.4403 15.07919402572394,6920.696,95.49600000000001,651.367,433.755,0.0
37853,RAX-2,PAYLOAD,2022-04-24 11:52:33,15.07938946,0.015717099999999998,101.7042,190.9342,247.8268,110.6203,0.00047283,9.534e-05,0.0,0 RAX-2,1 37853U 11061D   22114.49483500  .00009534  00000-0  47283-3 0  9996,2 37853 101.7042 190.9342 0157171 247.8268 110.6203 15.07938946573033,6920.6359999999995,95.495,651.273,433.72900000000004,0.0
37853,RAX-2,PAYLOAD,2022-04-25 11:45:46,15.07957079,0.0157114,101.7046,192.4453,244.8739,113.6104,0.00044119,8.887e-05,0.0,0 RAX-2,1 37853U 11061D   22115.49011639  .00008887  00000-0  44119-3 0  9992,2 37853 101.7046 192.4453 0157114 244.8739 113.6104 15.07957079572708,6920.58,95.493,651.177,433.713,0.0
37853,RAX-2,PAYLOAD,2022-04-26 03:41:13,15.07968493,0.015706,101.7047,193.4528,242.9006,115.6111,0.00040319,8.108e-05,0.0,0 RAX-2,1 37853U 11061D   22116.15363093  .00008108  00000-0  40319-3 0  9994,2 37853 101.7047 193.4528 0157060 242.9006 115.6111 15.07968493573285,6920.5459999999985,95.493,651.105,433.716,0.0
37853,RAX-2,PAYLOAD,2022-04-26 11:38:57,15.07975637,0.0157027,101.7049,193.9566,241.9055,116.6208,0.00042144,8.484e-05,0.0,0 RAX-2,1 37853U 11061D   22116.48538600  .00008484  00000-0  42144-3 0  9993,2 37853 101.7049 193.9566 0157027 241.9055 116.6208 15.07975637572858,6920.524,95.492,651.06,433.718,0.0
37853,RAX-2,PAYLOAD,2022-04-26 19:36:40,15.07982978,0.0157004,101.7049,194.4603,240.916,117.6253,0.00046305,9.341e-05,0.0,0 RAX-2,1 37853U 11061D   22116.81714023  .00009341  00000-0  46305-3 0  9991,2 37853 101.7049 194.4603 0157004 240.9160 117.6253 15.07982978572900,6920.501,95.492,651.021,433.712,0.0
37853,RAX-2,PAYLOAD,2022-04-27 11:32:07,15.07996427,0.0156947,101.705,195.4679,238.9317,119.6411,0.00047238,9.534e-05,0.0,0 RAX-2,1 37853U 11061D   22117.48064378  .00009534  00000-0  47238-3 0  9996,2 37853 101.7050 195.4679 0156947 238.9317 119.6411 15.07996427573488,6920.46,95.491,650.94,433.711,0.0
37853,RAX-2,PAYLOAD,2022-04-28 11:25:16,15.08023056,0.0156876,101.7049,196.9789,235.9701,122.6531,0.00062719,0.00012727,0.0,0 RAX-2,1 37853U 11061D   22118.47588733  .00012727  00000-0  62719-3 0  9991,2 37853 101.7049 196.9789 0156876 235.9701 122.6531 15.08023056573150,6920.379,95.48899999999999,650.808,433.67900000000003,0.0
